IRIDIUM 39              
1 25042U 97069D   25177.51919276  .00000367  00000+0  90788-4 0  9997
2 25042  86.3924 207.1320 0015477 276.7666  83.1777 14.49227453450313
IRIDIUM 38              
1 25043U 97069E   25177.07504987  .00000252  00000+0  76564-4 0  9997
2 25043  86.3959 229.4167 0004184  82.0333 278.1340 14.38122920447230
IRIDIUM 42              
1 25077U 97077A   25177.64948427  .00000297  00000+0  94889-4 0  9996
2 25077  86.3962 235.3561 0003070  90.7425 269.4123 14.36358273442558
IRIDIUM 44              
1 25078U 97077B   25177.64787108  .00000245  00000+0  71195-4 0  9992
2 25078  86.3966 217.2596 0002894  50.9119 309.2337 14.40247539445067
IRIDIUM 45              
1 25104U 97082A   25177.71757984  .00009808  00000+0  35045-3 0  9992
2 25104  86.3571  43.2648 0113705 296.5596  62.4029 15.22643858453492
IRIDIUM 24              
1 25105U 97082B   25177.74761126  .00000360  00000+0  10321-3 0  9993
2 25105  86.3897  76.2464 0013231  52.6810 307.5593 14.42106209444594
IRIDIUM 51              
1 25262U 98018A   25177.71302139  .00023259  00000+0  50921-3 0  9991
2 25262  86.3825  51.1151 0084099 211.9821 147.6315 15.40203385448496
IRIDIUM 57              
1 25273U 98019B   25177.30097484  .00000235  00000+0  74232-4 0  9994
2 25273  86.3979 141.4446 0002340  85.9723 274.1742 14.35898012426099
